{"type": "FeatureCollection", "features": [ {"type": "Feature", "properties": {"norad_id": 34375, "name": "IRIDIUM 33 DEB", "group": "iridium-33-debris", "lat": -44.20058383858013, "lon": -177.9092248324861, "alt_km": 910.9465134015818, "timestamp": "2025-12-05T14:45:15.682719+00:00", "meta": {"OBJECT_NAME": "IRIDIUM 33 DEB", "OBJECT_ID": "1997-051FT", "EPOCH": "2025-12-04T13:42:06.507360", "MEAN_MOTION": 14.17970346, "ECCENTRICITY": 0.0102617, "INCLINATION": 86.4331, "RA_OF_ASC_NODE": 185.989, "ARG_OF_PERICENTER": 152.4354, "MEAN_ANOMALY": 237.8204, "EPHEMERIS_TYPE": 0, "CLASSIFICATION_TYPE": "U", "NORAD_CAT_ID": 34375, "ELEMENT_SET_NO": 999, "REV_AT_EPOCH": 86596, "BSTAR": 0.0006989, "MEAN_MOTION_DOT": 1.525e-05, "MEAN_MOTION_DDOT": 0}, "tle": {"line1": "1 34375U 97051FT  25338.57090865  .00001525  00000+0  69890-3 0  9992", "line2": "2 34375  86.4331 185.9890 0102617 152.4354 237.8204 14.17970346865962"}}, "geometry": {"type": "Point", "coordinates": [-177.9092248324861, -44.20058383858013]}}, {"type": "Feature", "properties": {"norad_id": 34376, "name": "IRIDIUM 33 DEB", "group": "iridium-33-debris", "lat": -85.89830200015257, "lon": -105.75511313663726, "alt_km": 688.6758726298767, "timestamp": "2025-12-05T14:45:15.682730+00:00", "meta": {"OBJECT_NAME": "IRIDIUM 33 DEB", "OBJECT_ID": "1997-051FU", "EPOCH": "2025-12-04T06:19:49.811808", "MEAN_MOTION": 14.62377992, "ECCENTRICITY": 0.0026189, "INCLINATION": 86.2991, "RA_OF_ASC_NODE": 10.3504, "ARG_OF_PERICENTER": 195.5918, "MEAN_ANOMALY": 164.449, "EPHEMERIS_TYPE": 0, "CLASSIFICATION_TYPE": "U", "NORAD_CAT_ID": 34376, "ELEMENT_SET_NO": 999, "REV_AT_EPOCH": 87883, "BSTAR": 0.0035031, "MEAN_MOTION_DOT": 0.00017843, "MEAN_MOTION_DDOT": 0}, "tle": {"line1": "1 34376U 97051FU  25338.26377097  .00017843  00000+0  35031-2 0  9993", "line2": "2 34376  86.2991  10.3504 0026189 195.5918 164.4490 14.62377992878839"}}, "geometry": {"type": "Point", "coordinates": [-105.75511313663726, -85.89830200015257]}}, {"type": "Feature", "properties": {"norad_id": 34486, "name": "IRIDIUM 33 DEB", "group": "iridium-33-debris", "lat": -2.385185652356699, "lon": 15.162286710609932, "alt_km": 591.5094951388301, "timestamp": "2025-12-05T14:45:15.682741+00:00", "meta": {"OBJECT_NAME": "IRIDIUM 33 DEB", "OBJECT_ID": "1997-051GB", "EPOCH": "2025-12-04T13:38:06.925344", "MEAN_MOTION": 14.9522889, "ECCENTRICITY": 0.0013076, "INCLINATION": 86.3938, "RA_OF_ASC_NODE": 15.7953, "ARG_OF_PERICENTER": 139.4776, "MEAN_ANOMALY": 348.0834, "EPHEMERIS_TYPE": 0, "CLASSIFICATION_TYPE": "U", "NORAD_CAT_ID": 34486, "ELEMENT_SET_NO": 999, "REV_AT_EPOCH": 88864, "BSTAR": 0.0049776, "MEAN_MOTION_DOT": 0.00055199, "MEAN_MOTION_DDOT": 0}, "tle": {"line1": "1 34486U 97051GB  25338.56813571  .00055199  00000+0  49776-2 0  9997", "line2": "2 34486  86.3938  15.7953 0013076 139.4776 348.0834 14.95228890888640"}}, "geometry": {"type": "Point", "coordinates": [15.162286710609932, -2.385185652356699]}}, {"type": "Feature", "properties": {"norad_id": 34487, "name": "IRIDIUM 33 DEB", "group": "iridium-33-debris", "lat": -84.6178160047434, "lon": -27.288065766990247, "alt_km": 767.8228147955897, "timestamp": "2025-12-05T14:45:15.682751+00:00", "meta": {"OBJECT_NAME": "IRIDIUM 33 DEB", "OBJECT_ID": "1997-051GC", "EPOCH": "2025-12-03T10:12:00.081216", "MEAN_MOTION": 14.43196495, "ECCENTRICITY": 0.00319082, "INCLINATION": 86.3443, "RA_OF_ASC_NODE": 16.3873, "ARG_OF_PERICENTER": 157.9365, "MEAN_ANOMALY": 266.0119, "EPHEMERIS_TYPE": 0, "CLASSIFICATION_TYPE": "U", "NORAD_CAT_ID": 34487, "ELEMENT_SET_NO": 999, "REV_AT_EPOCH": 88114, "BSTAR": 0.00029137047, "MEAN_MOTION_DOT": 1.005e-05, "MEAN_MOTION_DDOT": 0}, "tle": {"line1": "1 34487U 97051GC  25337.42500094  .00001005  00000+0  29137-3 0  9992", "line2": "2 34487  86.3443  16.3873 0031908 157.9365 266.0119 14.43196495881144"}}, "geometry": {"type": "Point", "coordinates": [-27.288065766990247, -84.6178160047434]}}, {"type": "Feature", "properties": {"norad_id": 34488, "name": "IRIDIUM 33 DEB", "group": "iridium-33-debris", "lat": -46.761748517498035, "lon": 133.2550024597124, "alt_km": 502.08137455753604, "timestamp": "2025-12-05T14:45:15.682761+00:00", "meta": {"OBJECT_NAME": "IRIDIUM 33 DEB", "OBJECT_ID": "1997-051GD", "EPOCH": "2025-12-04T04:43:46.394400", "MEAN_MOTION": 15.26377687, "ECCENTRICITY": 0.00155256, "INCLINATION": 86.3256, "RA_OF_ASC_NODE": 310.0352, "ARG_OF_PERICENTER": 64.3641, "MEAN_ANOMALY": 295.9208, "EPHEMERIS_TYPE": 0, "CLASSIFICATION_TYPE": "U", "NORAD_CAT_ID": 34488, "ELEMENT_SET_NO": 999, "REV_AT_EPOCH": 89109, "BSTAR": 0.0085126879, "MEAN_MOTION_DOT": 0.00228455, "MEAN_MOTION_DDOT": 0}, "tle": {"line1": "1 34488U 97051GD  25338.19706475  .00228455  00000+0  85127-2 0  9999", "line2": "2 34488  86.3256 310.0352 0015525  64.3641 295.9208 15.26377687891099"}}, "geometry": {"type": "Point", "coordinates": [133.2550024597124, -46.761748517498035]}}, {"type": "Feature", "properties": {"norad_id": 34492, "name": "IRIDIUM 33 DEB", "group": "iridium-33-debris", "lat": 84.2079875047507, "lon": 120.0373478452292, "alt_km": 932.1826500759753, "timestamp": "2025-12-05T14:45:15.682772+00:00", "meta": {"OBJECT_NAME": "IRIDIUM 33 DEB", "OBJECT_ID": "1997-051GH", "EPOCH": "2025-12-04T06:22:25.668768", "MEAN_MOTION": 14.2534836, "ECCENTRICITY": 0.0190073, "INCLINATION": 86.4709, "RA_OF_ASC_NODE": 338.0551, "ARG_OF_PERICENTER": 265.7011, "MEAN_ANOMALY": 110.4059, "EPHEMERIS_TYPE": 0, "CLASSIFICATION_TYPE": "U", "NORAD_CAT_ID": 34492, "ELEMENT_SET_NO": 999, "REV_AT_EPOCH": 84938, "BSTAR": 0.015697, "MEAN_MOTION_DOT": 0.00044922, "MEAN_MOTION_DDOT": 0}, "tle": {"line1": "1 34492U 97051GH  25338.26557487  .00044922  00000+0  15697-1 0  9998", "line2": "2 34492  86.4709 338.0551 0190073 265.7011 110.4059 14.25348360849383"}}, "geometry": {"type": "Point", "coordinates": [120.0373478452292, 84.2079875047507]}}, {"type": "Feature", "properties": {"norad_id": 34497, "name": "IRIDIUM 33 DEB", "group": "iridium-33-debris", "lat": -74.72744385134395, "lon": 41.6561713892651, "alt_km": 795.4546821265549, "timestamp": "2025-12-05T14:45:15.682782+00:00", "meta": {"OBJECT_NAME": "IRIDIUM 33 DEB", "OBJECT_ID": "1997-051GN", "EPOCH": "2025-12-04T12:14:50.225856", "MEAN_MOTION": 14.27417883, "ECCENTRICITY": 0.0079675, "INCLINATION": 86.2786, "RA_OF_ASC_NODE": 55.9172, "ARG_OF_PERICENTER": 6.4341, "MEAN_ANOMALY": 7.361, "EPHEMERIS_TYPE": 0, "CLASSIFICATION_TYPE": "U", "NORAD_CAT_ID": 34497, "ELEMENT_SET_NO": 999, "REV_AT_EPOCH": 86766, "BSTAR": 0.0011124, "MEAN_MOTION_DOT": 2.839e-05, "MEAN_MOTION_DDOT": 0}, "tle": {"line1": "1 34497U 97051GN  25338.51030354  .00002839  00000+0  11124-2 0  9993", "line2": "2 34497  86.2786  55.9172 0079675   6.4341   7.3610 14.27417883867662"}}, "geometry": {"type": "Point", "coordinates": [41.6561713892651, -74.72744385134395]}}, {"type": "Feature", "properties": {"norad_id": 34508, "name": "IRIDIUM 33 DEB", "group": "iridium-33-debris", "lat": 16.65789243762445, "lon": -75.42541689733916, "alt_km": 725.2837779104411, "timestamp": "2025-12-05T14:45:15.682793+00:00", "meta": {"OBJECT_NAME": "IRIDIUM 33 DEB", "OBJECT_ID": "1997-051GZ", "EPOCH": "2025-12-04T14:37:10.254144", "MEAN_MOTION": 14.38305208, "ECCENTRICITY": 0.0065555, "INCLINATION": 86.3701, "RA_OF_ASC_NODE": 106.0892, "ARG_OF_PERICENTER": 199.4051, "MEAN_ANOMALY": 160.4651, "EPHEMERIS_TYPE": 0, "CLASSIFICATION_TYPE": "U", "NORAD_CAT_ID": 34508, "ELEMENT_SET_NO": 999, "REV_AT_EPOCH": 87192, "BSTAR": 0.0039355, "MEAN_MOTION_DOT": 0.00012307, "MEAN_MOTION_DDOT": 0}, "tle": {"line1": "1 34508U 97051GZ  25338.60914646  .00012307  00000+0  39355-2 0  9998", "line2": "2 34508  86.3701 106.0892 0065555 199.4051 160.4651 14.38305208871922"}}, "geometry": {"type": "Point", "coordinates": [-75.42541689733916, 16.65789243762445]}}, {"type": "Feature", "properties": {"norad_id": 34521, "name": "IRIDIUM 33 DEB", "group": "iridium-33-debris", "lat": 62.323795089978525, "lon": 40.61603728685873, "alt_km": 677.275474292238, "timestamp": "2025-12-05T14:45:15.682803+00:00", "meta": {"OBJECT_NAME": "IRIDIUM 33 DEB", "OBJECT_ID": "1997-051HN", "EPOCH": "2025-12-04T15:29:32.133120", "MEAN_MOTION": 14.63253587, "ECCENTRICITY": 0.0001112, "INCLINATION": 86.3809, "RA_OF_ASC_NODE": 34.1114, "ARG_OF_PERICENTER": 282.2127, "MEAN_ANOMALY": 77.896, "EPHEMERIS_TYPE": 0, "CLASSIFICATION_TYPE": "U", "NORAD_CAT_ID": 34521, "ELEMENT_SET_NO": 999, "REV_AT_EPOCH": 88354, "BSTAR": 0.0022511, "MEAN_MOTION_DOT": 0.00011629, "MEAN_MOTION_DDOT": 0}, "tle": {"line1": "1 34521U 97051HN  25338.64551080  .00011629  00000+0  22511-2 0  9998", "line2": "2 34521  86.3809  34.1114 0001112 282.2127  77.8960 14.63253587883543"}}, "geometry": {"type": "Point", "coordinates": [40.61603728685873, 62.323795089978525]}}, {"type": "Feature", "properties": {"norad_id": 34525, "name": "IRIDIUM 33 DEB", "group": "iridium-33-debris", "lat": 44.498693187577544, "lon": 53.45762996243178, "alt_km": 743.395832967165, "timestamp": "2025-12-05T14:45:15.682813+00:00", "meta": {"OBJECT_NAME": "IRIDIUM 33 DEB", "OBJECT_ID": "1997-051HS", "EPOCH": "2025-12-04T15:56:56.567904", "MEAN_MOTION": 14.42875001, "ECCENTRICITY": 0.0006483, "INCLINATION": 86.3735, "RA_OF_ASC_NODE": 50.29, "ARG_OF_PERICENTER": 113.478, "MEAN_ANOMALY": 38.6351, "EPHEMERIS_TYPE": 0, "CLASSIFICATION_TYPE": "U", "NORAD_CAT_ID": 34525, "ELEMENT_SET_NO": 999, "REV_AT_EPOCH": 87971, "BSTAR": 0.0007208, "MEAN_MOTION_DOT": 2.426e-05, "MEAN_MOTION_DDOT": 0}, "tle": {"line1": "1 34525U 97051HS  25338.66454361  .00002426  00000+0  72080-3 0  9990", "line2": "2 34525  86.3735  50.2900 0006483 113.4780  38.6351 14.42875001879714"}}, "geometry": {"type": "Point", "coordinates": [53.45762996243178, 44.498693187577544]}}]}